DMSP 5D-3 F16 (USA 172) 
1 28054U 03048A   26139.94543352 -.00000046  00000+0 -52638-6 0  9991
2 28054  98.9906 163.5849 0006270 219.8835 225.3352 14.14479721165496
METEOSAT-9 (MSG-2)      
1 28912U 05049B   26139.86641920  .00000119  00000+0  00000+0 0  9996
2 28912   9.3000  54.4428 0001501 307.0308 233.6158  1.00271430  6711
DMSP 5D-3 F17 (USA 191) 
1 29522U 06050A   26139.95581674  .00000010  00000+0  27507-4 0  9992
2 29522  98.7384 147.1035 0010965 131.9798 228.2312 14.14987834  8435
FENGYUN 3A              
1 32958U 08026A   26139.57189151  .00000042  00000+0  40514-4 0  9994
2 32958  98.6875  80.9426 0008120 203.9621 156.1179 14.19564432931344
GOES 14                 
1 35491U 09033A   26139.82698780 -.00000166  00000+0  00000+0 0  9998
2 35491   1.6187  83.3539 0001609 337.4182 272.2522  1.00117069  6308
DMSP 5D-3 F18 (USA 210) 
1 35951U 09057A   26139.92525032  .00000205  00000+0  12910-3 0  9995
2 35951  98.9028 120.7584 0010632 337.5786  22.4921 14.14879506855596
EWS-G2 (GOES 15)        
1 36411U 10008A   26139.93308502  .00000018  00000+0  00000+0 0  9992
2 36411   1.2029  83.3189 0004651  32.2622 161.3072  1.00273584 59358
COMS 1                  
1 36744U 10032A   26139.73655804 -.00000347  00000+0  00000+0 0  9992
2 36744   4.7361  75.7224 0000796 336.5397 218.4491  1.00270635 50808
FENGYUN 3B              
1 37214U 10059A   26139.95711155 -.00000232  00000+0 -96366-4 0  9999
2 37214  98.9634 185.8484 0020909 266.7965 213.2653 14.14833619803437
SUOMI NPP               
1 37849U 11061A   26139.93459634  .00000058  00000+0  48733-4 0  9995
2 37849  98.7945  81.0057 0002724  62.0978 298.0474 14.19510805754434
METEOSAT-10 (MSG-3)     
1 38552U 12035B   26139.95148898 -.00000011  00000+0  00000+0 0  9998
2 38552   4.6069  61.1423 0001768 317.9229 201.1358  1.00271720 50579
METOP-B                 
1 38771U 12049A   26139.96262100  .00000059  00000+0  46993-4 0  9997
2 38771  98.6522 192.0222 0003440  78.9677 281.1887 14.21424073709259
INSAT-3D                
1 39216U 13038B   26139.97708721 -.00000342  00000+0  00000+0 0  9996
2 39216   1.8548  82.8718 0001022 302.4429 333.5977  1.00270855 46793
FENGYUN 3C              
1 39260U 13052A   26139.91567138  .00000040  00000+0  41128-4 0  9995
2 39260  98.4966 115.0918 0015827 103.5445 256.7494 14.15747709654562
METEOR-M 2              
1 40069U 14037A   26139.91910407  .00000181  00000+0  10196-3 0  9995
2 40069  98.5103 116.6620 0006824 113.1073 247.0825 14.21453164615309
HIMAWARI-8              
1 40267U 14060A   26139.90800852 -.00000279  00000+0  00000+0 0  9990
2 40267   0.0273  56.8574 0000680  19.6673 268.5912  1.00271860 42479
FENGYUN 2G              
1 40367U 14090A   26139.82853536 -.00000303  00000+0  00000+0 0  9990
2 40367   5.5687  73.1459 0003166 141.7213  60.3751  1.00262162 41712
METEOSAT-11 (MSG-4)     
1 40732U 15034A   26139.95322233  .00000058  00000+0  00000+0 0  9990
2 40732   3.1317  71.2607 0001741 357.1994 161.5636  1.00271461  6935
ELEKTRO-L 2             
1 41105U 15074A   26139.66315780 -.00000121  00000+0  00000+0 0  9998
2 41105   6.6231  70.8620 0001518 255.3021 135.4013  1.00271640 38220
INSAT-3DR               
1 41752U 16054A   26139.96611927 -.00000080  00000+0  00000+0 0  9994
2 41752   0.1022  87.6290 0011042 190.3089  21.4980  1.00271606 35539
HIMAWARI-9              
1 41836U 16064A   26139.90800852 -.00000278  00000+0  00000+0 0  9998
2 41836   0.0304 180.9456 0000801 254.3409 269.9357  1.00271006 34926
GOES 16                 
1 41866U 16071A   26139.93071529 -.00000094  00000+0  00000+0 0  9999
2 41866   0.2716  85.6385 0000939 254.9460 127.3887  1.00271863 34820
FENGYUN 4A              
1 41882U 16077A   26139.97596054 -.00000361  00000+0  00000+0 0  9999
2 41882   2.2520  80.5547 0008564 146.3301 125.7967  1.00266726 34640
CYGFM05                 
1 41884U 16078A   26139.94960809  .00017374  00000+0  24764-3 0  9990
2 41884  34.9574  87.3831 0008969 249.2010 110.7754 15.55319381524354
CYGFM04                 
1 41885U 16078B   26139.94080952  .00022369  00000+0  26912-3 0  9990
2 41885  34.9335  56.5001 0008429 286.8492  73.1308 15.59795528524586
CYGFM02                 
1 41886U 16078C   26139.92794063  .00025718  00000+0  28051-3 0  9991
2 41886  34.9417  51.8876 0009555 288.4760  71.4928 15.62298231524743
CYGFM01                 
1 41887U 16078D   26139.95023777  .00017932  00000+0  24965-3 0  9991
2 41887  34.9403  88.6593 0008611 244.1663 115.8173 15.55951717524300
CYGFM08                 
1 41888U 16078E   26139.89224490  .00020662  00000+0  26191-3 0  9997
2 41888  34.9441  69.3380 0010268 270.2653  89.6895 15.58413459524558
CYGFM07                 
1 41890U 16078G   26139.85317801  .00020526  00000+0  25944-3 0  9999
2 41890  34.9457  57.9642 0008806 285.0041  74.9708 15.58507908524577
CYGFM03                 
1 41891U 16078H   26139.95219617  .00020881  00000+0  26393-3 0  9990
2 41891  34.9411  59.2532 0008144 275.5070  84.4725 15.58512178524561
FENGYUN 3D              
1 43010U 17072A   26139.95737833 -.00000036  00000+0  48150-5 0  9993
2 43010  99.0117 113.8729 0002424 109.9815 250.1621 14.19732951440987
NOAA 20 (JPSS-1)        
1 43013U 17073A   26139.94770108  .00000054  00000+0  46604-4 0  9998
2 43013  98.7763  79.6630 0001281  43.7559 316.3718 14.19505927440469
GOES 17                 
1 43226U 18022A   26139.93366197 -.00000186  00000+0  00000+0 0  9999
2 43226   0.8675  86.0829 0000379 314.5036  83.6449  1.00271363 30144
FENGYUN 2H              
1 43491U 18050A   26139.89587513 -.00000134  00000+0  00000+0 0  9999
2 43491   2.9591  79.3820 0001769 148.6608  51.4652  1.00272085 29159
METOP-C                 
1 43689U 18087A   26139.91300489  .00000063  00000+0  48720-4 0  9992
2 43689  98.6659 200.0309 0000517 147.7056 212.4153 14.21503561390819
GEO-KOMPSAT-2A          
1 43823U 18100A   26139.61096900 -.00000346  00000+0  00000+0 0  9994
2 43823   0.0631  97.0093 0001920 329.5548 158.9388  1.00271191 27348
METEOR-M2 2             
1 44387U 19038A   26139.93538620  .00000221  00000+0  11550-3 0  9993
2 44387  98.9138 126.8061 0002385  92.4697 267.6754 14.24358013357277
ARKTIKA-M 1             
1 47719U 21016A   26139.08335878 -.00000154  00000+0  00000+0 0  9990
2 47719  63.2280  61.8651 7277473 269.7896  14.7864  2.00632267 38203
FENGYUN 3E              
1 49008U 21062A   26140.01489385 -.00000180  00000+0 -64210-4 0  9990
2 49008  98.7493 143.7372 0002148 134.5068 225.6284 14.19900637252583
GOES 18                 
1 51850U 22021A   26139.78154287  .00000094  00000+0  00000+0 0  9990
2 51850   0.0435 109.6088 0000191  15.8388 256.3553  1.00270459  6305
NOAA 21 (JPSS-2)        
1 54234U 22150A   26139.91115010  .00000034  00000+0  36971-4 0  9993
2 54234  98.7052  79.1767 0000561 300.7898  59.3223 14.19559737182539
METEOSAT-12 (MTG-I1)    
1 54743U 22170C   26139.95140231 -.00000011  00000+0  00000+0 0  9992
2 54743   0.7519  26.1190 0000712 340.9085 212.7614  1.00273113 12694
TIANMU-1 03             
1 55973U 23039A   26139.91005486  .00011560  00000+0  23553-3 0  9993
2 55973  97.5229 312.7929 0003222 172.7533 187.3763 15.46405933176464
TIANMU-1 04             
1 55974U 23039B   26139.91016490  .00012037  00000+0  24042-3 0  9995
2 55974  97.5165 311.9456 0003914 172.8365 187.2941 15.46972758176474
TIANMU-1 05             
1 55975U 23039C   26139.95422291  .00012024  00000+0  24546-3 0  9995
2 55975  97.5212 312.4638 0002478 192.3679 167.7509 15.46340453176457
TIANMU-1 06             
1 55976U 23039D   26139.91190463  .00011797  00000+0  23637-3 0  9991
2 55976  97.5218 313.0279 0002925 187.6409 172.4796 15.46889713176477
FENGYUN 3G              
1 56232U 23055A   26139.93325485  .00019456  00000+0  30813-3 0  9995
2 56232  49.9912 131.7883 0005831  65.9505 294.2072 15.53365369175614
METEOR-M2 3             
1 57166U 23091A   26139.99352828 -.00000017  00000+0  11216-4 0  9990
2 57166  98.6097 195.5458 0002861 244.3103 115.7781 14.24044080150505
TIANMU-1 07             
1 57399U 23101A   26139.83964727  .00004157  00000+0  14823-3 0  9994
2 57399  97.2606 191.1640 0001660 189.4749 170.6461 15.29441690157315
TIANMU-1 08             
1 57400U 23101B   26139.93736789  .00003905  00000+0  13901-3 0  9999
2 57400  97.2594 191.0338 0003439 188.9871 171.1309 15.29529614157324
TIANMU-1 09             
1 57401U 23101C   26139.92111071  .00004393  00000+0  15635-3 0  9998
2 57401  97.2552 190.4487 0001925 207.1983 152.9157 15.29468629157329
TIANMU-1 10             
1 57402U 23101D   26139.95362804  .00004385  00000+0  15622-3 0  9991
2 57402  97.2631 191.5021 0003505 214.8793 145.2218 15.29439390157320
FENGYUN 3F              
1 57490U 23111A   26139.92898024  .00000021  00000+0  30506-4 0  9996
2 57490  98.6841 210.4625 0001363 112.2691 247.8631 14.19933555144856
ARKTIKA-M 2             
1 58584U 23198A   26138.84987002  .00000166  00000+0  00000+0 0  9992
2 58584  63.1901 157.6300 6893056 267.5473  18.8003  2.00594140 17738
TIANMU-1 11             
1 58645U 23205A   26140.00358478  .00003951  00000+0  15316-3 0  9994
2 58645  97.3459 162.0083 0010900 102.7738 257.4720 15.26668915133222
TIANMU-1 12             
1 58646U 23205B   26139.97320360  .00003841  00000+0  14923-3 0  9999
2 58646  97.3447 161.7401 0009173  89.4461 270.7829 15.26623052133203
TIANMU-1 13             
1 58647U 23205C   26140.00271794  .00004041  00000+0  15756-3 0  9990
2 58647  97.3475 162.0374 0008859  73.1151 287.1059 15.26479588133204
TIANMU-1 14             
1 58648U 23205D   26139.98874902  .00003944  00000+0  15359-3 0  9996
2 58648  97.3411 161.2276 0009718  76.6657 283.5665 15.26524272133205
TIANMU-1 19             
1 58660U 23208A   26139.92747763  .00005989  00000+0  20188-3 0  9998
2 58660  97.4478 256.0982 0006141  67.3890 292.8000 15.31094690133009
TIANMU-1 20             
1 58661U 23208B   26139.92194152  .00005975  00000+0  19406-3 0  9993
2 58661  97.4420 256.6987 0008331  71.5577 288.6569 15.32286350133099
TIANMU-1 21             
1 58662U 23208C   26139.95207185  .00007166  00000+0  21656-3 0  9992
2 58662  97.4479 259.2896 0008274  65.6326 294.5780 15.34515003133233
TIANMU-1 22             
1 58663U 23208D   26139.96543909  .00005334  00000+0  18281-3 0  9996
2 58663  97.4475 256.0955 0005186  87.4458 272.7376 15.30613260133013
TIANMU-1 15             
1 58700U 24004A   26139.98374892  .00003988  00000+0  15461-3 0  9998
2 58700  97.4671 326.1750 0008620  89.9756 270.2470 15.26696326131474
TIANMU-1 16             
1 58701U 24004B   26139.96792106  .00003783  00000+0  14802-3 0  9990
2 58701  97.4618 325.4278 0007598  92.8592 267.3516 15.26423485131479
TIANMU-1 17             
1 58702U 24004C   26139.95337214  .00003807  00000+0  14896-3 0  9995
2 58702  97.4646 325.8876 0007136  97.0779 263.1271 15.26424419131460
TIANMU-1 18             
1 58703U 24004D   26139.93455612  .00003812  00000+0  14804-3 0  9992
2 58703  97.4664 326.1067 0005721  93.1497 267.0397 15.26686646131463
INSAT-3DS               
1 58990U 24033A   26139.96764050 -.00000159  00000+0  00000+0 0  9995
2 58990   0.0450 254.7847 0001263 155.6719 257.5893  1.00269985 46789
METEOR-M2 4             
1 59051U 24039A   26139.97624750  .00000006  00000+0  22261-4 0  9991
2 59051  98.6996  99.6319 0005947 249.0137 111.0405 14.22426311115259
GOES 19                 
1 60133U 24119A   26139.93652198 -.00000251  00000+0  00000+0 0  9991
2 60133   0.0433 113.6439 0000293  23.7253   2.1938  1.00271123  6688
FENGYUN 3H              
1 65815U 25219A   26139.43171418  .00000028  00000+0  33363-4 0  9995
2 65815  98.6760  80.7621 0001507  99.1615 260.9732 14.19914639 33306
